QIANFAN-147             
1 69106U 26108C   26157.94083328  .00000291  00000+0  13732-3 0  9997
2 69106  89.0118  23.3579 0015644 143.2364 216.9900 14.17033498  2899
QIANFAN-148             
1 69107U 26108D   26158.00538830  .00000285  00000+0  13368-3 0  9997
2 69107  89.0120  23.3494 0016154 147.9067 212.3109 14.17402655  2905
QIANFAN-149             
1 69108U 26108E   26158.00261102  .00000293  00000+0  13621-3 0  9994
2 69108  89.0122  23.3494 0015802 147.1660 213.0514 14.17857206  2902
QIANFAN-150             
1 69109U 26108F   26157.99424466  .00000284  00000+0  13070-3 0  9994
2 69109  89.0123  23.3483 0015836 148.8928 211.3202 14.18305644  2904
QIANFAN-152             
1 69111U 26108H   26157.84285424  .00000308  00000+0  13945-3 0  9998
2 69111  89.0121  23.3621 0015149 147.8099 212.4019 14.19418605  2882
QIANFAN-153             
1 69112U 26108J   26157.90826720  .00000295  00000+0  13288-3 0  9991
2 69112  89.0118  23.3531 0016355 147.5635 212.6563 14.19641746  2893
QIANFAN-154             
1 69113U 26108K   26157.90155644  .00000296  00000+0  13190-3 0  9995
2 69113  89.0123  23.3529 0016019 145.4957 214.7276 14.20189815  2898
QIANFAN-155             
1 69114U 26108L   26157.90442905  .00000306  00000+0  13802-3 0  9997
2 69114  89.0123  23.3533 0016738 145.8433 214.3837 14.19535194  2897
QIANFAN-156             
1 69115U 26108M   26157.89686328  .00000300  00000+0  13164-3 0  9990
2 69115  89.0126  23.3527 0016363 147.0709 213.1505 14.20957636  2898
QIANFAN-157             
1 69116U 26108N   26157.30898275  .00000375  00000+0  15436-3 0  9999
2 69116  89.0123  23.4118 0016590 153.6669 206.5371 14.24908081  2816
QIANFAN-158             
1 69117U 26108P   26157.89051830  .00000318  00000+0  13748-3 0  9993
2 69117  89.0122  23.3510 0016300 148.4078 211.8095 14.21847125  2894
QIANFAN-159             
1 69118U 26108Q   26157.88652528  .00000330  00000+0  14210-3 0  9993
2 69118  89.0120  23.3502 0016005 148.2501 211.9658 14.22293477  2897
QIANFAN-160             
1 69119U 26108R   26157.95361853  .00000093  00000+0  34982-4 0  9995
2 69119  89.0122  23.3423 0015735 147.8950 212.3204 14.22717430  2908
QIANFAN-161             
1 69120U 26108S   26157.95011404  .00000322  00000+0  13601-3 0  9990
2 69120  89.0122  23.3416 0015744 148.6015 211.6120 14.23188836  2905
QIANFAN-162             
1 69121U 26108T   26157.94799169  .00000323  00000+0  13511-3 0  9992
2 69121  89.0122  23.3412 0015581 149.7820 210.4274 14.23624250  2909
SMILE                   
1 69123U 26109A   26144.65318427 -.00001976  00000+0 -42379-3 0  9994
2 69123  70.0007 229.2745 0009123 259.5159 100.4951 14.57062785   802
STARLINK-37726          
1 69124U 26110A   26158.25005787  .00020107  00000+0  37053-3 0  9998
2 69124  97.2858 354.3776 0001426  81.3047  78.5671 15.49179627  4069
STARLINK-37722          
1 69125U 26110B   26158.25005787 -.02560299  00000+0 -34694-1 0  9990
2 69125  97.2849 354.5168 0002157  89.3771  41.2583 15.61362720  4118
STARLINK-37715          
1 69126U 26110C   26158.25005787 -.02607027  00000+0 -23959-1 0  9994
2 69126  97.2849 354.5629 0001997  96.4380 143.2522 15.71024562  4067
STARLINK-37706          
1 69127U 26110D   26158.25005787 -.02593337  00000+0 -23474-1 0  9995
2 69127  97.2850 354.5661 0002022  94.3805 151.6694 15.71364862  4068
STARLINK-37723          
1 69128U 26110E   26158.25005787 -.02601056  00000+0 -23144-1 0  9998
2 69128  97.2848 354.5693 0001888  92.8219 160.2293 15.71781243  4069
STARLINK-37720          
1 69129U 26110F   26158.25005787  .00036698  00000+0  67390-3 0  9992
2 69129  97.2860 354.3984 0001976  91.9613 116.8838 15.49161740  4062
STARLINK-37533          
1 69130U 26110G   26156.86930582 -.00053675  00000+0 -28200-3 0  9992
2 69130  97.2839 353.1262 0001606  86.5092 273.6360 15.80753113  3851
STARLINK-37530          
1 69131U 26110H   26156.93185300  .00052184  00000+0  27125-3 0  9998
2 69131  97.2840 353.1944 0000830  62.1150 298.0203 15.80840143  3862
STARLINK-37660          
1 69132U 26110J   26158.25005787 -.01932721  00000+0 -23582-1 0  9994
2 69132  97.2854 354.5387 0001934  77.9094  96.7466 15.63609104  4069
STARLINK-37633          
1 69133U 26110K   26158.25005787 -.02089643  00000+0 -23978-1 0  9991
2 69133  97.2852 354.5426 0001988 100.6358  90.9818 15.65419596  4061
STARLINK-37361          
1 69134U 26110L   26158.25005787 -.02599314  00000+0 -20802-1 0  9996
2 69134  97.2843 354.5881 0001722  96.7581 198.7935 15.74247779  4065
STARLINK-37372          
1 69135U 26110M   26158.25005787 -.02644164  00000+0 -30965-1 0  9992
2 69135  97.2848 354.5606 0002035  94.3786 138.5924 15.65189602  4065
