OBJECT_NAME,OBJECT_ID,EPOCH,MEAN_MOTION,ECCENTRICITY,INCLINATION,RA_OF_ASC_NODE,ARG_OF_PERICENTER,MEAN_ANOMALY,EPHEMERIS_TYPE,CLASSIFICATION_TYPE,NORAD_CAT_ID,ELEMENT_SET_NO,REV_AT_EPOCH,BSTAR,MEAN_MOTION_DOT,MEAN_MOTION_DDOT
QIANFAN-147,2026-108C,2026-06-06T22:34:47.995392,14.17033498,.00156441,89.0118,23.3579,143.2364,216.9900,0,U,69106,999,289,.1373184E-3,.291E-5,0
QIANFAN-148,2026-108D,2026-06-07T00:07:45.549120,14.17402655,.00161535,89.0120,23.3494,147.9067,212.3109,0,U,69107,999,290,.13367744E-3,.285E-5,0
QIANFAN-149,2026-108E,2026-06-07T00:03:45.592128,14.17857206,.00158016,89.0122,23.3494,147.1660,213.0514,0,U,69108,999,290,.13620525E-3,.293E-5,0
QIANFAN-150,2026-108F,2026-06-06T23:51:42.739488,14.18305644,.00158362,89.0123,23.3483,148.8928,211.3202,0,U,69109,999,290,.13070005E-3,.284E-5,0
QIANFAN-152,2026-108H,2026-06-06T20:13:42.606336,14.19418605,.0015149,89.0121,23.3621,147.8099,212.4019,0,U,69111,999,288,.13945016E-3,.308E-5,0
QIANFAN-153,2026-108J,2026-06-06T21:47:54.286944,14.19641746,.00163546,89.0118,23.3531,147.5635,212.6563,0,U,69112,999,289,.13287819E-3,.295E-5,0
QIANFAN-154,2026-108K,2026-06-06T21:38:14.476416,14.20189815,.00160192,89.0123,23.3529,145.4957,214.7276,0,U,69113,999,289,.13190143E-3,.296E-5,0
QIANFAN-155,2026-108L,2026-06-06T21:42:22.670784,14.19535194,.00167377,89.0123,23.3533,145.8433,214.3837,0,U,69114,999,289,.13802465E-3,.306E-5,0
QIANFAN-156,2026-108M,2026-06-06T21:31:28.987392,14.20957636,.00163635,89.0126,23.3527,147.0709,213.1505,0,U,69115,999,289,.13164159E-3,.3E-5,0
QIANFAN-157,2026-108N,2026-06-06T07:24:56.109600,14.24908081,.00165908,89.0123,23.4118,153.6669,206.5371,0,U,69116,999,281,.15435736E-3,.375E-5,0
QIANFAN-158,2026-108P,2026-06-06T21:22:20.781120,14.21847125,.00163001,89.0122,23.3510,148.4078,211.8095,0,U,69117,999,289,.13748419E-3,.318E-5,0
QIANFAN-159,2026-108Q,2026-06-06T21:16:35.784192,14.22293477,.00160052,89.0120,23.3502,148.2501,211.9658,0,U,69118,999,289,.14209863E-3,.33E-5,0
QIANFAN-160,2026-108R,2026-06-06T22:53:12.641856,14.22717430,.00157354,89.0122,23.3423,147.8950,212.3204,0,U,69119,999,290,.34982054E-4,.93E-6,0
QIANFAN-161,2026-108S,2026-06-06T22:48:09.853920,14.23188837,.00157444,89.0122,23.3416,148.6015,211.6120,0,U,69120,999,290,.13600611E-3,.322E-5,0
QIANFAN-162,2026-108T,2026-06-06T22:45:06.482016,14.23624250,.00155805,89.0122,23.3412,149.7820,210.4274,0,U,69121,999,290,.13510593E-3,.323E-5,0
SMILE,2026-109A,2026-05-24T15:40:35.120928,14.57062785,.00091232,70.0007,229.2745,259.5159,100.4951,0,U,69123,999,80,-.42378883E-3,-.1976E-4,0
STARLINK-37726,2026-110A,2026-06-07T06:00:04.999968,15.49179627,.00014268,97.2858,354.3776,81.3047,78.5671,0,U,69124,999,406,.37053192E-3,.20107E-3,0
STARLINK-37722,2026-110B,2026-06-07T06:00:04.999968,15.61362720,.00021579,97.2849,354.5168,89.3771,41.2583,0,U,69125,999,411,-.34694047E-1,-.2560299E-1,0
STARLINK-37715,2026-110C,2026-06-07T06:00:04.999968,15.71024562,.00019978,97.2849,354.5629,96.4380,143.2522,0,U,69126,999,406,-.23959416E-1,-.2607027E-1,0
STARLINK-37706,2026-110D,2026-06-07T06:00:04.999968,15.71364862,.00020221,97.2850,354.5661,94.3805,151.6694,0,U,69127,999,406,-.23474031E-1,-.2593337E-1,0
STARLINK-37723,2026-110E,2026-06-07T06:00:04.999968,15.71781243,.00018887,97.2848,354.5693,92.8219,160.2293,0,U,69128,999,406,-.23143978E-1,-.2601056E-1,0
STARLINK-37720,2026-110F,2026-06-07T06:00:04.999968,15.49161740,.00019769,97.2860,354.3984,91.9613,116.8838,0,U,69129,999,406,.67389502E-3,.36698E-3,0
STARLINK-37533,2026-110G,2026-06-05T20:51:48.022848,15.80753113,.00016063,97.2839,353.1262,86.5092,273.6360,0,U,69130,999,385,-.28200148E-3,-.53675E-3,0
STARLINK-37530,2026-110H,2026-06-05T22:21:52.099200,15.80840143,.000083,97.2840,353.1944,62.1150,298.0203,0,U,69131,999,386,.27125343E-3,.52184E-3,0
STARLINK-37660,2026-110J,2026-06-07T06:00:04.999968,15.63609104,.00019346,97.2854,354.5387,77.9094,96.7466,0,U,69132,999,406,-.23581744E-1,-.1932721E-1,0
STARLINK-37633,2026-110K,2026-06-07T06:00:04.999968,15.65419596,.00019888,97.2852,354.5426,100.6358,90.9818,0,U,69133,999,406,-.23977913E-1,-.2089643E-1,0
STARLINK-37361,2026-110L,2026-06-07T06:00:04.999968,15.74247779,.00017227,97.2843,354.5881,96.7581,198.7935,0,U,69134,999,406,-.20802469E-1,-.2599314E-1,0
STARLINK-37372,2026-110M,2026-06-07T06:00:04.999968,15.65189602,.00020351,97.2848,354.5606,94.3786,138.5924,0,U,69135,999,406,-.30964529E-1,-.2644164E-1,0
